CORVUS BC2              
1 42846U 17042X   26068.92684092  .00004947  00000+0  34626-3 0  9997
2 42846  97.3955 234.2405 0014586  92.3850 267.9047 15.05610206472122
STARLINK-5353           
1 57370U 23099AU  26068.52336173  .00000301  00000+0  37333-4 0  9993
2 57370  43.0027 236.6608 0001278 270.4242  89.6454 15.02535385146240
